NORAD_CAT_ID,OBJECT_NAME,OBJECT_TYPE,EPOCH,MEAN_MOTION,ECCENTRICITY,INCLINATION,RA_OF_ASC_NODE,ARG_OF_PERICENTER,MEAN_ANOMALY,BSTAR,MEAN_MOTION_DOT,MEAN_MOTION_DDOT,TLE_LINE0,TLE_LINE1,TLE_LINE2,SEMIMAJOR_AXIS,PERIOD,APOGEE,PERIGEE,DECAYED
55662.0,STARLINK-5479,PAYLOAD,2023-06-25 02:15:30,15.69929897,0.0003431,69.9994,151.9568,265.8969,94.1834,2.7229e-05,3.063e-05,0.0,0 STARLINK-5479,1 55662U 23021AL  23176.09409962  .00003063  00000-0  27229-4 0  9998,2 55662  69.9994 151.9568 0003431 265.8969  94.1834 15.69929897 20526,6737.235,91.724,361.411,356.788,0.0
55662.0,STARLINK-5479,PAYLOAD,2023-06-26 01:11:47,15.69922758,0.0003215,69.9996,149.2706,265.4627,94.6201,8.3796e-06,7.95e-06,0.0,0 STARLINK-5479,1 55662U 23021AL  23177.04985445  .00000795  00000-0  83796-5 0  9990,2 55662  69.9996 149.2706 0003215 265.4627  94.6201 15.69922758 20677,6737.255,91.724,361.286,356.954,0.0
55662.0,STARLINK-5479,PAYLOAD,2023-06-27 04:43:19,15.6992926,0.0003536,69.9991,146.0454,264.7042,95.375,1.7472e-05,1.889e-05,0.0,0 STARLINK-5479,1 55662U 23021AL  23178.19675287  .00001889  00000-0  17472-4 0  9999,2 55662  69.9991 146.0454 0003536 264.7042  95.3750 15.69929260 20858,6737.236,91.724,361.484,356.719,0.0
55662.0,STARLINK-5479,PAYLOAD,2023-06-28 00:36:06,15.69909307,0.0004182,69.9985,143.7161,275.3527,84.7192,-6.9832e-06,-1.052e-05,0.0,0 STARLINK-5479,1 55662U 23021AL  23179.02508007 -.00001052  00000-0 -69832-5 0  9999,2 55662  69.9985 143.7161 0004182 275.3527  84.7192 15.69909307 20980,6737.293,91.725,361.976,356.341,0.0
55662.0,STARLINK-5479,PAYLOAD,2023-06-28 06:43:06,15.69919931,0.0003719,69.9983,143.0,268.3127,91.7642,-3.9286e-06,-6.85e-06,0.0,0 STARLINK-5479,1 55662U 23021AL  23179.27993972 -.00000685  00000-0 -39286-5 0  9996,2 55662  69.9983 143.0000 0003719 268.3127  91.7642 15.69919931 21024,6737.263,91.724,361.634,356.622,0.0
55662.0,STARLINK-5479,PAYLOAD,2023-06-29 08:42:54,15.69920537,0.0003148,69.9983,139.9528,272.8573,87.2262,1.2434e-06,-6.3e-07,0.0,0 STARLINK-5479,1 55662U 23021AL  23180.36312754 -.00000063  00000-0  12434-5 0  9996,2 55662  69.9983 139.9528 0003148 272.8573  87.2262 15.69920537 21194,6737.261,91.724,361.247,357.005,0.0
55662.0,STARLINK-5479,PAYLOAD,2023-07-01 00:28:27,15.69922262,0.0003054,70.0007,135.2987,248.1721,111.915,1.9743e-05,2.162e-05,0.0,0 STARLINK-5479,1 55662U 23021AL  23182.01975932  .00002162  00000-0  19743-4 0  9993,2 55662  70.0007 135.2987 0003054 248.1721 111.9150 15.69922262 21456,6737.256,91.724,361.179,357.064,0.0
55662.0,STARLINK-5479,PAYLOAD,2023-07-01 06:35:28,15.69914579,0.0002884,69.9992,134.5793,263.692,96.3947,-3.7425e-07,-2.57e-06,0.0,0 STARLINK-5479,1 55662U 23021AL  23182.27463113 -.00000257  00000-0 -37425-6 0  9998,2 55662  69.9992 134.5793 0002884 263.6920  96.3947 15.69914579 21492,6737.278,91.725,361.086,357.2,0.0
55662.0,STARLINK-5479,PAYLOAD,2023-07-01 14:14:13,15.69923302,0.0003746,69.9988,133.6832,260.6882,99.389,1.1045e-05,1.115e-05,0.0,0 STARLINK-5479,1 55662U 23021AL  23182.59320834  .00001115  00000-0  11045-4 0  9995,2 55662  69.9988 133.6832 0003746 260.6882  99.3890 15.69923302 21543,6737.253,91.724,361.642,356.595,0.0
55662.0,STARLINK-5479,PAYLOAD,2023-07-02 14:42:15,15.69930078,0.0003578,69.9996,130.8189,261.0751,99.004,2.8731e-05,3.244e-05,0.0,0 STARLINK-5479,1 55662U 23021AL  23183.61267448  .00003244  00000-0  28731-4 0  9995,2 55662  69.9996 130.8189 0003578 261.0751  99.0040 15.69930078 21709,6737.234,91.724,361.51,356.688,0.0
55662.0,STARLINK-5479,PAYLOAD,2023-07-02 23:52:46,15.69919996,0.0003592,69.9995,129.7437,260.4745,99.6045,8.2823e-06,7.83e-06,0.0,0 STARLINK-5479,1 55662U 23021AL  23183.99497958  .00000783  00000-0  82823-5 0  9995,2 55662  69.9995 129.7437 0003592 260.4745  99.6045 15.69919996 21766,6737.263,91.724,361.548,356.708,0.0
55662.0,STARLINK-5479,PAYLOAD,2023-07-03 05:59:47,15.69908741,0.0003132,69.9999,129.0282,269.8384,90.2453,-1.7665e-05,-2.335e-05,0.0,0 STARLINK-5479,1 55662U 23021AL  23184.24985293 -.00002335  00000-0 -17665-4 0  9996,2 55662  69.9999 129.0282 0003132 269.8384  90.2453 15.69908741 21804,6737.295,91.725,361.27,357.05,0.0
55662.0,STARLINK-5479,PAYLOAD,2023-07-03 13:38:32,15.69921489,0.0003598,69.9979,128.1314,261.7339,98.3449,7.5045e-06,6.89e-06,0.0,0 STARLINK-5479,1 55662U 23021AL  23184.56842930  .00000689  00000-0  75045-5 0  9996,2 55662  69.9979 128.1314 0003598 261.7339  98.3449 15.69921489 21858,6737.259,91.724,361.548,356.7,0.0
55662.0,STARLINK-5479,PAYLOAD,2023-07-04 06:27:48,15.69933703,0.0003693,69.999,126.1616,259.2229,100.8551,2.2529e-05,2.498e-05,0.0,0 STARLINK-5479,1 55662U 23021AL  23185.26930817  .00002498  00000-0  22529-4 0  9994,2 55662  69.9990 126.1616 0003693 259.2229 100.8551 15.69933703 21967,6737.224,91.724,361.577,356.601,0.0
55662.0,STARLINK-5479,PAYLOAD,2023-07-04 23:17:05,15.69914429,0.0003783,69.9973,124.1895,266.0741,94.0023,2.4506e-06,8.2e-07,0.0,0 STARLINK-5479,1 55662U 23021AL  23185.97020446  .00000082  00000-0  24506-5 0  9995,2 55662  69.9973 124.1895 0003783 266.0741  94.0023 15.69914429 22075,6737.279,91.725,361.693,356.595,0.0
55662.0,STARLINK-5479,PAYLOAD,2023-07-05 05:24:05,15.6992404,0.0003618,69.998,123.4738,258.9913,101.0875,9.4876e-06,9.28e-06,0.0,0 STARLINK-5479,1 55662U 23021AL  23186.22506474  .00000928  00000-0  94876-5 0  9990,2 55662  69.9980 123.4738 0003618 258.9913 101.0875 15.69924040 22118,6737.251,91.724,361.554,356.679,0.0
55662.0,STARLINK-5479,PAYLOAD,2023-07-06 05:52:07,15.69921514,0.0003669,69.998,120.6079,257.7178,102.3607,7.7529e-06,7.19e-06,0.0,0 STARLINK-5479,1 55662U 23021AL  23187.24453648  .00000719  00000-0  77529-5 0  9991,2 55662  69.9980 120.6079 0003669 257.7178 102.3607 15.69921514 22278,6737.259,91.724,361.595,356.652,0.0
55662.0,STARLINK-5479,PAYLOAD,2023-07-06 13:30:55,15.69899881,0.0004037,69.9972,119.7112,265.0257,95.0478,-1.7584e-05,-2.325e-05,0.0,0 STARLINK-5479,1 55662U 23021AL  23187.56313870 -.00002325  00000-0 -17584-4 0  9999,2 55662  69.9972 119.7112 0004037 265.0257  95.0478 15.69899881 22327,6737.32,91.726,361.905,356.466,0.0
55662.0,STARLINK-5479,PAYLOAD,2023-07-07 01:44:55,15.69917466,0.0003168,69.9991,118.2832,230.8597,129.2318,1.4276e-05,1.504e-05,0.0,0 STARLINK-5479,1 55662U 23021AL  23188.07286007  .00001504  00000-0  14276-4 0  9998,2 55662  69.9991 118.2832 0003168 230.8597 129.2318 15.69917466 22404,6737.27,91.725,361.269,357.001,0.0
55662.0,STARLINK-5479,PAYLOAD,2023-07-07 12:27:09,15.69945986,0.000378,69.9976,117.0256,257.1392,102.9381,4.1245e-05,4.754e-05,0.0,0 STARLINK-5479,1 55662U 23021AL  23188.51885550  .00004754  00000-0  41245-4 0  9991,2 55662  69.9976 117.0256 0003780 257.1392 102.9381 15.69945986 22472,6737.189,91.723,361.6,356.507,0.0
55662.0,STARLINK-5479,PAYLOAD,2023-07-07 21:37:40,15.6993245,0.0003315,70.0001,115.9515,252.1589,107.9245,2.6835e-05,3.016e-05,0.0,0 STARLINK-5479,1 55662U 23021AL  23188.90116577  .00003016  00000-0  26835-4 0  9998,2 55662  70.0001 115.9515 0003315 252.1589 107.9245 15.69932450 22539,6737.227,91.724,361.326,356.859,0.0
55662.0,STARLINK-5479,PAYLOAD,2023-07-08 05:16:26,15.6992855,0.0003383,70.0007,115.0581,245.576,114.5083,9.9103e-06,9.79e-06,0.0,0 STARLINK-5479,1 55662U 23021AL  23189.21975066  .00000979  00000-0  99103-5 0  9993,2 55662  70.0007 115.0581 0003383 245.5760 114.5083 15.69928550 22586,6737.238,91.724,361.383,356.824,0.0
55662.0,STARLINK-5479,PAYLOAD,2023-07-09 11:51:28,15.69928138,0.0003979,69.9986,111.4711,266.6258,93.4482,-1.5955e-05,-2.132e-05,0.0,0 STARLINK-5479,1 55662U 23021AL  23190.49408393 -.00002132  00000-0 -15955-4 0  9996,2 55662  69.9986 111.4711 0003979 266.6258  93.4482 15.69928138 22783,6737.24,91.724,361.785,356.424,0.0
55662.0,STARLINK-5479,PAYLOAD,2023-07-09 17:58:14,15.70196424,0.0008494,69.9992,110.7545,269.9356,90.0867,0.00048645,0.00059459,0.0,0 STARLINK-5479,1 55662U 23021AL  23190.74878407  .00059459  00000-0  48645-3 0  9994,2 55662  69.9992 110.7545 0008494 269.9356  90.0867 15.70196424 22821,6736.472,91.708,364.059,352.615,0.0
55662.0,STARLINK-5479,PAYLOAD,2023-07-10 06:00:00,15.69908286,0.0003631,69.9993,109.3456,273.2966,37.7817,0.00022705,0.0002716,0.0,0 STARLINK-5479,1 55662U 23021AL  23191.25001157  .00027160  00000-0  22705-3 0  9994,2 55662  69.9993 109.3456 0003631 273.2966  37.7817 15.69908286 22907,6737.296,91.725,361.608,356.715,0.0
55662.0,STARLINK-5479,PAYLOAD,2023-07-10 13:51:15,15.69922461,0.0003206,69.9993,108.4271,266.8741,93.2088,2.8669e-05,3.236e-05,0.0,0 STARLINK-5479,1 55662U 23021AL  23191.57726835  .00003236  00000-0  28669-4 0  9990,2 55662  69.9993 108.4271 0003206 266.8741  93.2088 15.69922461 22952,6737.256,91.724,361.281,356.961,0.0
55662.0,STARLINK-5479,PAYLOAD,2023-07-11 21:57:55,15.70151525,0.0004029,69.9971,104.6626,287.7078,72.3678,-0.00047995,-0.00058079,0.0,0 STARLINK-5479,1 55662U 23021AL  23192.91522219 -.00058079  00000-0 -47995-3 0  9998,2 55662  69.9971 104.6626 0004029 287.7078  72.3678 15.70151525 23163,6736.601,91.711,361.18,355.751,0.0
55662.0,STARLINK-5479,PAYLOAD,2023-07-13 16:47:14,15.69715043,0.0003069,70.0004,99.6486,265.9867,94.0978,-0.00044511,-0.00052936,0.0,0 STARLINK-5479,1 55662U 23021AL  23194.69947413 -.00052936  00000-0 -44511-3 0  9999,2 55662  70.0004  99.6486 0003069 265.9867  94.0978 15.69715043 23441,6737.849,91.736,361.782,357.646,0.0
55662.0,STARLINK-5479,PAYLOAD,2023-07-13 22:53:36,15.70582089,0.0005668,70.0002,98.9306,250.7799,109.2784,0.0011801,0.00148282,0.0,0 STARLINK-5479,1 55662U 23021AL  23194.95389210  .00148282  00000-0  11801-2 0  9996,2 55662  70.0002  98.9306 0005668 250.7799 109.2784 15.70582089 23487,6735.369,91.686,361.052,353.417,0.0
55662.0,STARLINK-5479,PAYLOAD,2023-07-14 01:57:37,15.69936544,0.000353,69.9987,98.5714,268.5104,91.5687,3.48e-05,3.976e-05,0.0,0 STARLINK-5479,1 55662U 23021AL  23195.08168547  .00003976  00000-0  34800-4 0  9995,2 55662  69.9987  98.5714 0003530 268.5104  91.5687 15.69936544 23503,6737.216,91.723,361.459,356.702,0.0
